start=new Date('2021-09-17T00:00:00.000Z').valueOf();
sats=[{"PERIAPSIS":"546.646","MEAN_ANOMALY":"250.9441","CENTER_NAME":"EARTH","FILE":"3117438","BSTAR":"0.00010585000000","REV_AT_EPOCH":"2591","DECAY_DATE":null,"INCLINATION":"53.0581","EPHEMERIS_TYPE":"0","MEAN_MOTION_DOT":"0.00001296","NORAD_CAT_ID":"48112","TIME_SYSTEM":"UTC","EPOCH":"2021-09-16T16:26:16.439136","ECCENTRICITY":"0.00008200","ELEMENT_SET_NO":"999","SEMIMAJOR_AXIS":"6925.348","GP_ID":"184852798","COUNTRY_CODE":"US","MEAN_MOTION":"15.06400038","MEAN_MOTION_DDOT":"0.0000000000000","OBJECT_ID":"2021-027W","PERIOD":"95.592","MEAN_ELEMENT_THEORY":"SGP4","RCS_SIZE":"LARGE","TLE_LINE2":"2 48112  53.0581 316.4320 0000820 109.1637 250.9441 15.06400038 25915","LAUNCH_DATE":"2021-04-07","CLASSIFICATION_TYPE":"U","OBJECT_TYPE":"PAYLOAD","OBJECT_NAME":"STARLINK-2449","ARG_OF_PERICENTER":"109.1637","RA_OF_ASC_NODE":"316.4320","APOAPSIS":"547.781","REF_FRAME":"TEME","SITE":"AFETR","TLE_LINE1":"1 48112U 21027W   21259.68491249  .00001296  00000-0  10585-3 0  9990"},{"REF_FRAME":"TEME","SITE":"AFETR","APOAPSIS":"547.561","TLE_LINE1":"1 48113U 21027X   21259.63655974 -.00000294  00000-0 -87490-6 0  9994","OBJECT_NAME":"STARLINK-2450","OBJECT_TYPE":"PAYLOAD","ARG_OF_PERICENTER":"120.2424","RA_OF_ASC_NODE":"311.6500","TLE_LINE2":"2 48113  53.0560 311.6500 0000485 120.2424 239.8613 15.06396319 25963","LAUNCH_DATE":"2021-04-07","CLASSIFICATION_TYPE":"U","PERIOD":"95.592","OBJECT_ID":"2021-027X","MEAN_MOTION_DDOT":"0.0000000000000","MEAN_ELEMENT_THEORY":"SGP4","RCS_SIZE":"LARGE","COUNTRY_CODE":"US","MEAN_MOTION":"15.06396319","GP_ID":"184852051","SEMIMAJOR_AXIS":"6925.360","ELEMENT_SET_NO":"999","EPOCH":"2021-09-16T15:16:38.761536","ECCENTRICITY":"0.00004850","NORAD_CAT_ID":"48113","TIME_SYSTEM":"UTC","INCLINATION":"53.0560","DECAY_DATE":null,"EPHEMERIS_TYPE":"0","REV_AT_EPOCH":"2596","MEAN_MOTION_DOT":"-0.00000294","FILE":"3117438","CENTER_NAME":"EARTH","BSTAR":"-0.00000087490000","MEAN_ANOMALY":"239.8613","PERIAPSIS":"546.889"},{"ECCENTRICITY":"0.00004650","EPOCH":"2021-09-16T11:09:08.831520","ELEMENT_SET_NO":"999","PERIAPSIS":"546.924","MEAN_ANOMALY":"233.0417","CENTER_NAME":"EARTH","FILE":"3117121","BSTAR":"-0.00004404800000","REV_AT_EPOCH":"2602","INCLINATION":"53.0562","DECAY_DATE":null,"EPHEMERIS_TYPE":"0","MEAN_MOTION_DOT":"-0.00000937","NORAD_CAT_ID":"48114","TIME_SYSTEM":"UTC","MEAN_MOTION_DDOT":"0.0000000000000","OBJECT_ID":"2021-027Y","PERIOD":"95.593","MEAN_ELEMENT_THEORY":"SGP4","RCS_SIZE":"LARGE","TLE_LINE2":"2 48114  53.0562 307.4227 0000465 127.0614 233.0417 15.06389492 26029","LAUNCH_DATE":"2021-04-07","CLASSIFICATION_TYPE":"U","OBJECT_NAME":"STARLINK-2451","OBJECT_TYPE":"PAYLOAD","ARG_OF_PERICENTER":"127.0614","RA_OF_ASC_NODE":"307.4227","APOAPSIS":"547.568","SITE":"AFETR","REF_FRAME":"TEME","TLE_LINE1":"1 48114U 21027Y   21259.46468555 -.00000937  00000-0 -44048-4 0  9997","SEMIMAJOR_AXIS":"6925.381","GP_ID":"184822095","COUNTRY_CODE":"US","MEAN_MOTION":"15.06389492"},{"SEMIMAJOR_AXIS":"6925.386","COUNTRY_CODE":"US","MEAN_MOTION":"15.06387890","GP_ID":"184852553","TLE_LINE2":"2 48115  53.0534 302.0016 0000563 119.5204 240.5841 15.06387890 26109","LAUNCH_DATE":"2021-04-07","CLASSIFICATION_TYPE":"U","MEAN_MOTION_DDOT":"0.0000000000000","OBJECT_ID":"2021-027Z","PERIOD":"95.593","MEAN_ELEMENT_THEORY":"SGP4","RCS_SIZE":"LARGE","APOAPSIS":"547.641","SITE":"AFETR","REF_FRAME":"TEME","TLE_LINE1":"1 48115U 21027Z   21259.55913916 -.00001003  00000-0 -48520-4 0  9998","OBJECT_TYPE":"PAYLOAD","OBJECT_NAME":"STARLINK-2452","ARG_OF_PERICENTER":"119.5204","RA_OF_ASC_NODE":"302.0016","CENTER_NAME":"EARTH","FILE":"3117438","BSTAR":"-0.00004852000000","PERIAPSIS":"546.861","MEAN_ANOMALY":"240.5841","NORAD_CAT_ID":"48115","TIME_SYSTEM":"UTC","REV_AT_EPOCH":"2610","DECAY_DATE":null,"INCLINATION":"53.0534","EPHEMERIS_TYPE":"0","MEAN_MOTION_DOT":"-0.00001003","ELEMENT_SET_NO":"999","ECCENTRICITY":"0.00005630","EPOCH":"2021-09-16T13:25:09.623424"},{"SEMIMAJOR_AXIS":"6925.367","GP_ID":"184853298","COUNTRY_CODE":"US","MEAN_MOTION":"15.06394105","MEAN_MOTION_DDOT":"0.0000000000000","OBJECT_ID":"2021-027AA","PERIOD":"95.593","MEAN_ELEMENT_THEORY":"SGP4","RCS_SIZE":"LARGE","LAUNCH_DATE":"2021-04-07","TLE_LINE2":"2 48116  53.0572 311.6726 0000756 118.2414 241.8652 15.06394105 25974","CLASSIFICATION_TYPE":"U","OBJECT_TYPE":"PAYLOAD","OBJECT_NAME":"STARLINK-2454","ARG_OF_PERICENTER":"118.2414","RA_OF_ASC_NODE":"311.6726","APOAPSIS":"547.755","REF_FRAME":"TEME","SITE":"AFETR","TLE_LINE1":"1 48116U 21027AA  21259.63287716  .00000774  00000-0  70867-4 0  9991","PERIAPSIS":"546.708","MEAN_ANOMALY":"241.8652","CENTER_NAME":"EARTH","FILE":"3117438","BSTAR":"0.00007086700000","REV_AT_EPOCH":"2597","DECAY_DATE":null,"EPHEMERIS_TYPE":"0","INCLINATION":"53.0572","MEAN_MOTION_DOT":"0.00000774","NORAD_CAT_ID":"48116","TIME_SYSTEM":"UTC","EPOCH":"2021-09-16T15:11:20.586624","ECCENTRICITY":"0.00007560","ELEMENT_SET_NO":"999"},{"OBJECT_ID":"2021-027AB","MEAN_MOTION_DDOT":"0.0000000000000","PERIOD":"95.593","MEAN_ELEMENT_THEORY":"SGP4","RCS_SIZE":"LARGE","LAUNCH_DATE":"2021-04-07","TLE_LINE2":"2 48117  53.0549 292.6810 0000534 121.3191 238.7850 15.06389768 26225","CLASSIFICATION_TYPE":"U","OBJECT_TYPE":"PAYLOAD","OBJECT_NAME":"STARLINK-2455","ARG_OF_PERICENTER":"121.3191","RA_OF_ASC_NODE":"292.6810","APOAPSIS":"547.615","SITE":"AFETR","REF_FRAME":"TEME","TLE_LINE1":"1 48117U 21027AB  21259.40620010  .00001028  00000-0  87898-4 0  9990","SEMIMAJOR_AXIS":"6925.380","GP_ID":"184821346","MEAN_MOTION":"15.06389768","COUNTRY_CODE":"US","EPOCH":"2021-09-16T09:44:55.688640","ECCENTRICITY":"0.00005340","ELEMENT_SET_NO":"999","PERIAPSIS":"546.875","MEAN_ANOMALY":"238.7850","CENTER_NAME":"EARTH","FILE":"3117121","BSTAR":"0.00008789800000","REV_AT_EPOCH":"2622","INCLINATION":"53.0549","DECAY_DATE":null,"EPHEMERIS_TYPE":"0","MEAN_MOTION_DOT":"0.00001028","NORAD_CAT_ID":"48117","TIME_SYSTEM":"UTC"},{"CLASSIFICATION_TYPE":"U","LAUNCH_DATE":"2021-04-07","TLE_LINE2":"2 48118  53.0552 292.3319 0000531 115.9078 244.1966 15.06392664 25835","RCS_SIZE":"LARGE","MEAN_ELEMENT_THEORY":"SGP4","PERIOD":"95.593","OBJECT_ID":"2021-027AC","MEAN_MOTION_DDOT":"0.0000000000000","TLE_LINE1":"1 48118U 21027AC  21259.48360110 -.00000861  00000-0 -38973-4 0  9997","SITE":"AFETR","REF_FRAME":"TEME","APOAPSIS":"547.604","RA_OF_ASC_NODE":"292.3319","OBJECT_NAME":"STARLINK-2458","OBJECT_TYPE":"PAYLOAD","ARG_OF_PERICENTER":"115.9078","SEMIMAJOR_AXIS":"6925.371","MEAN_MOTION":"15.06392664","COUNTRY_CODE":"US","GP_ID":"184825757","ELEMENT_SET_NO":"999","ECCENTRICITY":"0.00005310","EPOCH":"2021-09-16T11:36:23.135040","BSTAR":"-0.00003897300000","FILE":"3117231","CENTER_NAME":"EARTH","MEAN_ANOMALY":"244.1966","PERIAPSIS":"546.868","TIME_SYSTEM":"UTC","NORAD_CAT_ID":"48118","MEAN_MOTION_DOT":"-0.00000861","EPHEMERIS_TYPE":"0","DECAY_DATE":null,"INCLINATION":"53.0552","REV_AT_EPOCH":"2583"},{"OBJECT_TYPE":"PAYLOAD","OBJECT_NAME":"STARLINK-2459","ARG_OF_PERICENTER":"105.0317","RA_OF_ASC_NODE":"292.3476","REF_FRAME":"TEME","SITE":"AFETR","APOAPSIS":"547.516","TLE_LINE1":"1 48119U 21027AD  21259.47991653  .00001153  00000-0  96310-4 0  9991","PERIOD":"95.593","OBJECT_ID":"2021-027AD","MEAN_MOTION_DDOT":"0.0000000000000","RCS_SIZE":"LARGE","MEAN_ELEMENT_THEORY":"SGP4","TLE_LINE2":"2 48119  53.0545 292.3476 0000383 105.0317 255.0714 15.06387967 26229","LAUNCH_DATE":"2021-04-07","CLASSIFICATION_TYPE":"U","GP_ID":"184822847","COUNTRY_CODE":"US","MEAN_MOTION":"15.06387967","SEMIMAJOR_AXIS":"6925.385","ECCENTRICITY":"0.00003830","EPOCH":"2021-09-16T11:31:04.788192","ELEMENT_SET_NO":"999","DECAY_DATE":null,"EPHEMERIS_TYPE":"0","INCLINATION":"53.0545","REV_AT_EPOCH":"2622","MEAN_MOTION_DOT":"0.00001153","NORAD_CAT_ID":"48119","TIME_SYSTEM":"UTC","MEAN_ANOMALY":"255.0714","PERIAPSIS":"546.985","FILE":"3117121","CENTER_NAME":"EARTH","BSTAR":"0.00009631000000"},{"ECCENTRICITY":"0.00007420","EPOCH":"2021-09-16T14:50:06.914976","ELEMENT_SET_NO":"999","PERIAPSIS":"546.726","MEAN_ANOMALY":"270.2121","BSTAR":"0.00002935400000","CENTER_NAME":"EARTH","FILE":"3117438","MEAN_MOTION_DOT":"0.00000156","REV_AT_EPOCH":"2598","INCLINATION":"53.0555","DECAY_DATE":null,"EPHEMERIS_TYPE":"0","TIME_SYSTEM":"UTC","NORAD_CAT_ID":"48120","RCS_SIZE":"LARGE","MEAN_ELEMENT_THEORY":"SGP4","OBJECT_ID":"2021-027AE","MEAN_MOTION_DDOT":"0.0000000000000","PERIOD":"95.593","CLASSIFICATION_TYPE":"U","TLE_LINE2":"2 48120  53.0555 311.7298 0000742  89.8953 270.2121 15.06391573 25985","LAUNCH_DATE":"2021-04-07","RA_OF_ASC_NODE":"311.7298","OBJECT_TYPE":"PAYLOAD","OBJECT_NAME":"STARLINK-2460","ARG_OF_PERICENTER":"89.8953","TLE_LINE1":"1 48120U 21027AE  21259.61813559  .00000156  00000-0  29354-4 0  9993","APOAPSIS":"547.753","REF_FRAME":"TEME","SITE":"AFETR","SEMIMAJOR_AXIS":"6925.374","GP_ID":"184852799","MEAN_MOTION":"15.06391573","COUNTRY_CODE":"US"},{"MEAN_MOTION_DOT":"-0.00000873","INCLINATION":"53.0558","DECAY_DATE":null,"EPHEMERIS_TYPE":"0","REV_AT_EPOCH":"2569","TIME_SYSTEM":"UTC","NORAD_CAT_ID":"48121","MEAN_ANOMALY":"208.6107","PERIAPSIS":"546.922","BSTAR":"-0.00003975100000","FILE":"3117288","CENTER_NAME":"EARTH","ECCENTRICITY":"0.00004580","EPOCH":"2021-09-16T10:57:53.879904","ELEMENT_SET_NO":"999","GP_ID":"184827617","MEAN_MOTION":"15.06391661","COUNTRY_CODE":"US","SEMIMAJOR_AXIS":"6925.374","RA_OF_ASC_NODE":"302.4546","ARG_OF_PERICENTER":"151.4908","OBJECT_TYPE":"PAYLOAD","OBJECT_NAME":"STARLINK-2462","TLE_LINE1":"1 48121U 21027AF  21259.45687361 -.00000873  00000-0 -39751-4 0  9996","SITE":"AFETR","REF_FRAME":"TEME","APOAPSIS":"547.556","RCS_SIZE":"LARGE","MEAN_ELEMENT_THEORY":"SGP4","PERIOD":"95.593","OBJECT_ID":"2021-027AF","MEAN_MOTION_DDOT":"0.0000000000000","CLASSIFICATION_TYPE":"U","TLE_LINE2":"2 48121  53.0558 302.4546 0000458 151.4908 208.6107 15.06391661 25697","LAUNCH_DATE":"2021-04-07"}];
